FLOCK 4Q-36             
1 58274U 23174U   26064.73877008  .00032615  00000+0  56319-3 0  9994
2 58274  97.3896 153.9032 0007777 158.7505 201.4071 15.50905938129767
FLOCK 4Q-12             
1 58275U 23174V   26064.74868063  .00086124  00000+0  14555-2 0  9996
2 58275  97.3886 153.7969 0005842 166.0649 194.0765 15.51287596129789
FLOCK 4Q-28             
1 58280U 23174AA  26064.69028633  .00033668  00000+0  62710-3 0  9999
2 58280  97.3914 152.9764 0007229 165.0642 195.0824 15.48746700129694
FLOCK 4Q-27             
1 58282U 23174AC  26064.75070616  .00035090  00000+0  65377-3 0  9999
2 58282  97.3860 152.5809 0006659 161.0008 199.1492 15.48734723129711
FLOCK 4Q-26             
1 58284U 23174AE  26064.72968634  .00038999  00000+0  68138-3 0  9993
2 58284  97.3909 153.9805 0007252 162.9987 197.1509 15.50542013129768
FLOCK 4Q-31             
1 58285U 23174AF  26064.69513374  .00040991  00000+0  72825-3 0  9990
2 58285  97.3954 153.5875 0007788 164.7162 195.4326 15.50052556129712
FLOCK 4Q-30             
1 58286U 23174AG  26064.74821644  .00040321  00000+0  71078-3 0  9995
2 58286  97.3953 153.8223 0007539 161.6595 198.4930 15.50280020129737
PELICAN-1               
1 58296U 23174AS  26064.22038229  .00086541  00000+0  93305-3 0  9999
2 58296  97.3829 158.7414 0008834 215.1143 144.9534 15.63352596129861
FLOCK 4Q-25             
1 58303U 23174AZ  26064.73709434  .00053593  00000+0  76480-3 0  9993
2 58303  97.3869 154.6648 0005227 147.4384 212.7194 15.56104669129858
FLOCK 4Q-29             
1 58304U 23174BA  26064.77464813  .00036546  00000+0  66902-3 0  9994
2 58304  97.3941 153.4497 0007869 153.1372 207.0288 15.49221164129712
FLOCK 4Q-22             
1 58306U 23174BC  26064.74154038  .00041256  00000+0  68908-3 0  9990
2 58306  97.3856 153.5869 0006608 157.2613 202.8933 15.51805317129784
FLOCK 4Q-23             
1 58307U 23174BD  26064.70644926  .00054588  00000+0  81335-3 0  9998
2 58307  97.3960 155.0891 0006890 152.5515 207.6104 15.54910447129816
FLOCK 4Q-33             
1 58308U 23174BE  26064.72554052  .00042129  00000+0  72648-3 0  9996
2 58308  97.3885 153.5101 0007525 147.0012 213.1711 15.50894501129765
FLOCK 4Q-35             
1 58309U 23174BF  26064.70977629  .00036696  00000+0  65664-3 0  9996
2 58309  97.3904 153.6644 0008202 159.7517 200.4061 15.49867066129743
FLOCK 4Q-34             
1 58316U 23174BN  26064.71804697  .00059492  00000+0  87915-3 0  9991
2 58316  97.3866 154.5044 0006670 154.1646 205.9943 15.55117162129821
FLOCK 4Q-7              
1 58318U 23174BQ  26064.74330719  .00036796  00000+0  68104-3 0  9996
2 58318  97.3939 153.2281 0007989 151.7556 208.4129 15.48903557129704
